COSMOS 2456 (730)       
1 36111U 09070A   26061.56757924  .00000027  00000+0  00000+0 0  9995
2 36111  64.9476  74.6081 0006278 305.3755 235.5541  2.13103363126159
COSMOS 2457 (733)       
1 36112U 09070B   26061.13625558  .00000030  00000+0  00000+0 0  9990
2 36112  64.9327  74.4689 0002191 196.0759 142.3530  2.13100813126145
COSMOS 2460 (732)       
1 36402U 10007C   26061.40600209 -.00000047  00000+0  00000+0 0  9999
2 36402  65.4810 318.0823 0001773  12.0656 174.0334  2.13105983124454
GPS BIIF-1  (PRN 25)    
1 36585U 10022A   26061.75914808 -.00000011  00000+0  00000+0 0  9990
2 36585  54.2892 212.8472 0127355  65.8685 294.0033  2.00557144115451
BEIDOU-2 IGSO-1 (C06)   
1 36828U 10036A   26061.07189801 -.00000163  00000+0  00000+0 0  9995
2 36828  54.2922 163.9315 0053965 219.0406 268.0169  1.00252677 57027
BEIDOU-2 IGSO-2 (C07)   
1 37256U 10068A   26061.28389944 -.00000169  00000+0  00000+0 0  9995
2 37256  47.7363 273.1534 0047418 212.8884 243.4237  1.00259336 55720
BEIDOU-2 IGSO-3 (C08)   
1 37384U 11013A   26058.90884667 -.00000154  00000+0  00000+0 0  9999
2 37384  62.2642  41.1818 0035029 190.8154 358.7681  1.00294022 54567
BEIDOU-2 IGSO-4 (C09)   
1 37763U 11038A   26060.75143950 -.00000133  00000+0  00000+0 0  9993
2 37763  54.5889 166.6436 0154411 230.9971 126.9270  1.00265713 53567
GSAT0101 (GALILEO-PFM)  
1 37846U 11060A   26053.46432651 -.00000082  00000+0  00000+0 0  9992
2 37846  57.0318 344.8758 0003975 357.0591   2.9533  1.70475478 89166
GSAT0102 (GALILEO-FM2)  
1 37847U 11060B   26060.06318653 -.00000106  00000+0  00000+0 0  9999
2 37847  57.0301 344.6971 0005422 341.2092 154.1953  1.70475778 89286
COSMOS 2476 (744)       
1 37867U 11064A   26061.08238354  .00000034  00000+0  00000+0 0  9996
2 37867  65.2077  76.4865 0025205 241.1677 195.8820  2.13103599111489
COSMOS 2477 (745)       
1 37868U 11064B   26061.25286427  .00000033  00000+0  00000+0 0  9999
2 37868  65.2142  76.5592 0022285 242.7081 145.7945  2.13102677111480
COSMOS 2475 (743)       
1 37869U 11064C   26061.33694637  .00000032  00000+0  00000+0 0  9994
2 37869  65.2213  76.5769 0028099 254.3586 154.2263  2.13101440111490
BEIDOU-2 IGSO-5 (C10)   
1 37948U 11073A   26060.51498981 -.00000133  00000+0  00000+0 0  9998
2 37948  47.8731 272.8747 0108570 221.0681 305.9392  1.00272949 52058
LUCH 5A (SDCM/PRN 140)  
1 37951U 11074B   26061.63875796 -.00000061  00000+0  00000+0 0  9990
2 37951   8.4827  75.3733 0004065 242.1610 239.9010  1.00275091 51987
